CTC2_L_00268016-03
1 10062U 22161GS  26075.70043981  .00000000  00000+0  00000-0 0  9992
2 10062  75.0000 180.0000 0000000   0.0000   0.0000 13.98210060    13
CTC2_L_00268016-04
1 10063U 24143ID  26075.70043981  .00000000  00000+0  00000-0 0  9995
2 10063  75.0000 180.0000 0000000   0.0000  90.0000 13.98210060    13
CTC2_L_00268017-01
1 10064U 25367GW  26075.70043981  .00000000  00000+0  00000-0 0  9995
2 10064  75.0000 192.0000 0000000   0.0000 192.0000 13.98210060    10
CTC2_L_00268017-02
1 10065U 25546HS  26075.70043981  .00000000  00000+0  00000-0 0  9995
2 10065  75.0000 192.0000 0000000   0.0000 282.0000 13.98210060    11
CTC2_L_00268017-03
1 10066U 22656ZQ  26075.70043981  .00000000  00000+0  00000-0 0  9995
2 10066  75.0000 192.0000 0000000   0.0000  12.0000 13.98210060    13
CTC2_L_00268017-04
1 10067U 23321RK  26075.70043981  .00000000  00000+0  00000-0 0  9996
2 10067  75.0000 192.0000 0000000   0.0000 102.0000 13.98210060    14
CTC2_L_00268018-01
1 10068U 26985BF  26075.70043981  .00000000  00000+0  00000-0 0  9996
2 10068  75.0000 204.0000 0000000   0.0000 204.0000 13.98210060    12
CTC2_L_00268018-02
1 10069U 23641LF  26075.70043981  .00000000  00000+0  00000-0 0  9993
2 10069  75.0000 204.0000 0000000   0.0000 294.0000 13.98210060    12
CTC2_L_00268018-03
1 10070U 25248GY  26075.70043981  .00000000  00000+0  00000-0 0  9990
2 10070  75.0000 204.0000 0000000   0.0000  24.0000 13.98210060    15
CTC2_L_00268018-04
1 10071U 24644KH  26075.70043981  .00000000  00000+0  00000-0 0  9990
2 10071  75.0000 204.0000 0000000   0.0000 114.0000 13.98210060    16
CTC2_L_00268019-01
1 10072U 22551PR  26075.70043981  .00000000  00000+0  00000-0 0  9996
2 10072  75.0000 216.0000 0000000   0.0000 216.0000 13.98210060    13
CTC2_L_00268019-02
1 10073U 23521TU  26075.70043981  .00000000  00000+0  00000-0 0  9995
2 10073  75.0000 216.0000 0000000   0.0000 306.0000 13.98210060    14
CTC2_L_00268019-03
1 10074U 23129TY  26075.70043981  .00000000  00000+0  00000-0 0  9990
2 10074  75.0000 216.0000 0000000   0.0000  36.0000 13.98210060    15
CTC2_L_00268019-04
1 10075U 25792YB  26075.70043981  .00000000  00000+0  00000-0 0  9999
2 10075  75.0000 216.0000 0000000   0.0000 126.0000 13.98210060    16
CTC2_L_00268020-01
1 10076U 22422DN  26075.70043981  .00000000  00000+0  00000-0 0  9997
2 10076  75.0000 228.0000 0000000   0.0000 228.0000 13.98210060    13
CTC2_L_00268020-02
1 10077U 24945AL  26075.70043981  .00000000  00000+0  00000-0 0  9990
2 10077  75.0000 228.0000 0000000   0.0000 318.0000 13.98210060    14
CTC2_L_00268020-03
1 10078U 25342PM  26075.70043981  .00000000  00000+0  00000-0 0  9993
2 10078  75.0000 228.0000 0000000   0.0000  48.0000 13.98210060    15
CTC2_L_00268020-04
1 10079U 23629CO  26075.70043981  .00000000  00000+0  00000-0 0  9990
2 10079  75.0000 228.0000 0000000   0.0000 138.0000 13.98210060    16
CTC2_L_00268021-01
1 10080U 26868RC  26075.70043981  .00000000  00000+0  00000-0 0  9990
2 10080  75.0000 240.0000 0000000   0.0000 240.0000 13.98210060    16
CTC2_L_00268021-02
1 10081U 22251VA  26075.70043981  .00000000  00000+0  00000-0 0  9993
2 10081  75.0000 240.0000 0000000   0.0000 330.0000 13.98210060    17
CTC2_L_00268021-03
1 10082U 25094ID  26075.70043981  .00000000  00000+0  00000-0 0  9992
2 10082  75.0000 240.0000 0000000   0.0000  60.0000 13.98210060    18
CTC2_L_00268021-04
1 10083U 23450DL  26075.70043981  .00000000  00000+0  00000-0 0  9997
2 10083  75.0000 240.0000 0000000   0.0000 150.0000 13.98210060    19
CTC2_L_00268022-01
1 10084U 24628RK  26075.70043981  .00000000  00000+0  00000-0 0  9996
2 10084  75.0000 252.0000 0000000   0.0000 252.0000 13.98210060    16
CTC2_L_00268022-02
1 10085U 23528AN  26075.70043981  .00000000  00000+0  00000-0 0  9995
2 10085  75.0000 252.0000 0000000   0.0000 342.0000 13.98210060    17
CTC2_L_00268022-03
1 10086U 24689NR  26075.70043981  .00000000  00000+0  00000-0 0  9995
2 10086  75.0000 252.0000 0000000   0.0000  72.0000 13.98210060    18
CTC2_L_00268022-04
1 10087U 25534MZ  26075.70043981  .00000000  00000+0  00000-0 0  9996
2 10087  75.0000 252.0000 0000000   0.0000 162.0000 13.98210060    19
CTC2_L_00268023-01
1 10088U 26630RJ  26075.70043981  .00000000  00000+0  00000-0 0  9995
2 10088  75.0000 264.0000 0000000   0.0000 264.0000 13.98210060    16
CTC2_L_00268023-02
1 10089U 22520TC  26075.70043981  .00000000  00000+0  00000-0 0  9990
2 10089  75.0000 264.0000 0000000   0.0000 354.0000 13.98210060    17
CTC2_L_00268023-03
1 10090U 25354IP  26075.70043981  .00000000  00000+0  00000-0 0  9990
2 10090  75.0000 264.0000 0000000   0.0000  84.0000 13.98210060    19
CTC2_L_00268023-04
1 10091U 26067NX  26075.70043981  .00000000  00000+0  00000-0 0  9993
2 10091  75.0000 264.0000 0000000   0.0000 174.0000 13.98210060    10
CTC2_L_00268024-01
1 10092U 26765NK  26075.70043981  .00000000  00000+0  00000-0 0  9999
2 10092  75.0000 276.0000 0000000   0.0000 276.0000 13.98210060    17
CTC2_L_00268024-02
1 10093U 24482MF  26075.70043981  .00000000  00000+0  00000-0 0  9994
2 10093  75.0000 276.0000 0000000   0.0000   6.0000 13.98210060    19
CTC2_L_00268024-03
1 10094U 22735UR  26075.70043981  .00000000  00000+0  00000-0 0  9994
2 10094  75.0000 276.0000 0000000   0.0000  96.0000 13.98210060    19
CTC2_L_00268024-04
1 10095U 24623AM  26075.70043981  .00000000  00000+0  00000-0 0  9993
2 10095  75.0000 276.0000 0000000   0.0000 186.0000 13.98210060    10
CTC2_L_00268025-01
1 10096U 23481TO  26075.70043981  .00000000  00000+0  00000-0 0  9995
2 10096  75.0000 288.0000 0000000   0.0000 288.0000 13.98210060    17
CTC2_L_00268025-02
1 10097U 25400AF  26075.70043981  .00000000  00000+0  00000-0 0  9999
2 10097  75.0000 288.0000 0000000   0.0000  18.0000 13.98210060    19
CTC2_L_00268025-03
1 10098U 23463GR  26075.70043981  .00000000  00000+0  00000-0 0  9997
2 10098  75.0000 288.0000 0000000   0.0000 108.0000 13.98210060    10
CTC2_L_00268025-04
1 10099U 22350YY  26075.70043981  .00000000  00000+0  00000-0 0  9992
2 10099  75.0000 288.0000 0000000   0.0000 198.0000 13.98210060    10
CTC2_L_00268026-01
1 10100U 22799ZO  26075.70043981  .00000000  00000+0  00000-0 0  9992
2 10100  75.0000 300.0000 0000000   0.0000 300.0000 13.98210060    13
CTC2_L_00268026-02
1 10101U 23936AW  26075.70043981  .00000000  00000+0  00000-0 0  9997
2 10101  75.0000 300.0000 0000000   0.0000  30.0000 13.98210060    14
CTC2_L_00268026-03
1 10102U 22074VG  26075.70043981  .00000000  00000+0  00000-0 0  9990
2 10102  75.0000 300.0000 0000000   0.0000 120.0000 13.98210060    15
CTC2_L_00268026-04
1 10103U 22559QL  26075.70043981  .00000000  00000+0  00000-0 0  9999
2 10103  75.0000 300.0000 0000000   0.0000 210.0000 13.98210060    16
CTC2_L_00268027-01
1 10104U 22573AA  26075.70043981  .00000000  00000+0  00000-0 0  9996
2 10104  75.0000 312.0000 0000000   0.0000 312.0000 13.98210060    13
CTC2_L_00268027-02
1 10105U 25346PH  26075.70043981  .00000000  00000+0  00000-0 0  9998
2 10105  75.0000 312.0000 0000000   0.0000  42.0000 13.98210060    14
CTC2_L_00268027-03
1 10106U 26770OD  26075.70043981  .00000000  00000+0  00000-0 0  9991
2 10106  75.0000 312.0000 0000000   0.0000 132.0000 13.98210060    15
CTC2_L_00268027-04
1 10107U 23040HQ  26075.70043981  .00000000  00000+0  00000-0 0  9999
2 10107  75.0000 312.0000 0000000   0.0000 222.0000 13.98210060    16
CTC2_L_00268028-01
1 10108U 24788NI  26075.70043981  .00000000  00000+0  00000-0 0  9990
2 10108  75.0000 324.0000 0000000   0.0000 324.0000 13.98210060    13
CTC2_L_00268028-02
1 10109U 24011GJ  26075.70043981  .00000000  00000+0  00000-0 0  9990
2 10109  75.0000 324.0000 0000000   0.0000  54.0000 13.98210060    14
CTC2_L_00268028-03
1 10110U 24267IM  26075.70043981  .00000000  00000+0  00000-0 0  9995
2 10110  75.0000 324.0000 0000000   0.0000 144.0000 13.98210060    16
CTC2_L_00268028-04
1 10111U 22475VC  26075.70043981  .00000000  00000+0  00000-0 0  9995
2 10111  75.0000 324.0000 0000000   0.0000 234.0000 13.98210060    17
CTC2_L_00268029-01
1 10112U 24631GP  26075.70043981  .00000000  00000+0  00000-0 0  9992
2 10112  75.0000 336.0000 0000000   0.0000 336.0000 13.98210060    14
CTC2_L_00268029-02
1 10113U 26410NT  26075.70043981  .00000000  00000+0  00000-0 0  9990
2 10113  75.0000 336.0000 0000000   0.0000  66.0000 13.98210060    15
CTC2_L_00268029-03
1 10114U 24583IN  26075.70043981  .00000000  00000+0  00000-0 0  9990
2 10114  75.0000 336.0000 0000000   0.0000 156.0000 13.98210060    16
CTC2_L_00268029-04
1 10115U 22788ES  26075.70043981  .00000000  00000+0  00000-0 0  9996
2 10115  75.0000 336.0000 0000000   0.0000 246.0000 13.98210060    17
CTC2_L_00268030-01
1 10116U 26504TK  26075.70043981  .00000000  00000+0  00000-0 0  9997
2 10116  75.0000 348.0000 0000000   0.0000 348.0000 13.98210060    14
CTC2_L_00268030-02
1 10117U 22393KI  26075.70043981  .00000000  00000+0  00000-0 0  9990
2 10117  75.0000 348.0000 0000000   0.0000  78.0000 13.98210060    15
CTC2_L_00268030-03
1 10118U 24856KC  26075.70043981  .00000000  00000+0  00000-0 0  9997
2 10118  75.0000 348.0000 0000000   0.0000 168.0000 13.98210060    16
CTC2_L_00268030-04
1 10119U 24142IH  26075.70043981  .00000000  00000+0  00000-0 0  9996
2 10119  75.0000 348.0000 0000000   0.0000 258.0000 13.98210060    17
